CCSDS_OMM_VERS = 2.0
CREATION_DATE  = 
ORIGINATOR     = 

OBJECT_NAME    = HULIANWANG DIGUI-151
OBJECT_ID      = 2026-013F
CENTER_NAME    = EARTH
REF_FRAME      = TEME
TIME_SYSTEM    = UTC
MEAN_ELEMENT_THEORY = SGP/SGP4

EPOCH          = 2026-01-21T03:44:45.585024
MEAN_MOTION    = 13.98327198
ECCENTRICITY   = .00098415
INCLINATION    = 50.0035
RA_OF_ASC_NODE = 177.7600
ARG_OF_PERICENTER = 238.6748
MEAN_ANOMALY   = 121.3191

EPHEMERIS_TYPE = 0
CLASSIFICATION_TYPE = U
NORAD_CAT_ID   = 67527
ELEMENT_SET_NO = 999
REV_AT_EPOCH   = 26
BSTAR          = -.32354314E-3
MEAN_MOTION_DOT = -.614E-5
MEAN_MOTION_DDOT = 0

CCSDS_OMM_VERS = 2.0
CREATION_DATE  = 
ORIGINATOR     = 

OBJECT_NAME    = HULIANWANG DIGUI-152
OBJECT_ID      = 2026-013G
CENTER_NAME    = EARTH
REF_FRAME      = TEME
TIME_SYSTEM    = UTC
MEAN_ELEMENT_THEORY = SGP/SGP4

EPOCH          = 2026-01-24T02:05:33.399168
MEAN_MOTION    = 13.97836723
ECCENTRICITY   = .0009745
INCLINATION    = 50.0047
RA_OF_ASC_NODE = 165.9375
ARG_OF_PERICENTER = 257.1222
MEAN_ANOMALY   = 102.8592

EPHEMERIS_TYPE = 0
CLASSIFICATION_TYPE = U
NORAD_CAT_ID   = 67528
ELEMENT_SET_NO = 999
REV_AT_EPOCH   = 67
BSTAR          = .21603E-4
MEAN_MOTION_DOT = -.118E-5
MEAN_MOTION_DDOT = 0

CCSDS_OMM_VERS = 2.0
CREATION_DATE  = 
ORIGINATOR     = 

OBJECT_NAME    = HULIANWANG DIGUI-153
OBJECT_ID      = 2026-013H
CENTER_NAME    = EARTH
REF_FRAME      = TEME
TIME_SYSTEM    = UTC
MEAN_ELEMENT_THEORY = SGP/SGP4

EPOCH          = 2026-01-21T10:36:05.463360
MEAN_MOTION    = 13.98470310
ECCENTRICITY   = .0008856
INCLINATION    = 50.0011
RA_OF_ASC_NODE = 176.6007
ARG_OF_PERICENTER = 242.1618
MEAN_ANOMALY   = 117.8387

EPHEMERIS_TYPE = 0
CLASSIFICATION_TYPE = U
NORAD_CAT_ID   = 67529
ELEMENT_SET_NO = 999
REV_AT_EPOCH   = 29
BSTAR          = .31747E-4
MEAN_MOTION_DOT = -.104E-5
MEAN_MOTION_DDOT = 0

CCSDS_OMM_VERS = 2.0
CREATION_DATE  = 
ORIGINATOR     = 

OBJECT_NAME    = HULIANWANG DIGUI-154
OBJECT_ID      = 2026-013J
CENTER_NAME    = EARTH
REF_FRAME      = TEME
TIME_SYSTEM    = UTC
MEAN_ELEMENT_THEORY = SGP/SGP4

EPOCH          = 2026-01-21T05:27:11.749248
MEAN_MOTION    = 13.98568419
ECCENTRICITY   = .0008317
INCLINATION    = 50.0045
RA_OF_ASC_NODE = 177.4718
ARG_OF_PERICENTER = 246.2151
MEAN_ANOMALY   = 113.7880

EPHEMERIS_TYPE = 0
CLASSIFICATION_TYPE = U
NORAD_CAT_ID   = 67530
ELEMENT_SET_NO = 999
REV_AT_EPOCH   = 26
BSTAR          = .98151E-4
MEAN_MOTION_DOT = -.8E-7
MEAN_MOTION_DDOT = 0

CCSDS_OMM_VERS = 2.0
CREATION_DATE  = 
ORIGINATOR     = 

OBJECT_NAME    = CZ-12 R/B
OBJECT_ID      = 2026-013K
CENTER_NAME    = EARTH
REF_FRAME      = TEME
TIME_SYSTEM    = UTC
MEAN_ELEMENT_THEORY = SGP/SGP4

EPOCH          = 2026-01-27T16:56:56.301216
MEAN_MOTION    = 14.14453600
ECCENTRICITY   = .00690857
INCLINATION    = 49.9906
RA_OF_ASC_NODE = 150.4522
ARG_OF_PERICENTER = 156.7136
MEAN_ANOMALY   = 203.6927

EPHEMERIS_TYPE = 0
CLASSIFICATION_TYPE = U
NORAD_CAT_ID   = 67531
ELEMENT_SET_NO = 999
REV_AT_EPOCH   = 118
BSTAR          = .19143601E-3
MEAN_MOTION_DOT = .222E-5
MEAN_MOTION_DDOT = 0

CCSDS_OMM_VERS = 2.0
CREATION_DATE  = 
ORIGINATOR     = 

OBJECT_NAME    = STARLINK-36587
OBJECT_ID      = 2026-014A
CENTER_NAME    = EARTH
REF_FRAME      = TEME
TIME_SYSTEM    = UTC
MEAN_ELEMENT_THEORY = SGP/SGP4

EPOCH          = 2026-01-27T14:00:04.000032
MEAN_MOTION    = 16.01249261
ECCENTRICITY   = .0001161
INCLINATION    = 97.2829
RA_OF_ASC_NODE = 270.2144
ARG_OF_PERICENTER = 77.4846
MEAN_ANOMALY   = 315.3904

EPHEMERIS_TYPE = 0
CLASSIFICATION_TYPE = U
NORAD_CAT_ID   = 67532
ELEMENT_SET_NO = 999
REV_AT_EPOCH   = 208
BSTAR          = -.23159E-2
MEAN_MOTION_DOT = -.1253496E-1
MEAN_MOTION_DDOT = .50499E-3

CCSDS_OMM_VERS = 2.0
CREATION_DATE  = 
ORIGINATOR     = 

OBJECT_NAME    = STARLINK-36417
OBJECT_ID      = 2026-014B
CENTER_NAME    = EARTH
REF_FRAME      = TEME
TIME_SYSTEM    = UTC
MEAN_ELEMENT_THEORY = SGP/SGP4

EPOCH          = 2026-01-27T14:00:04.000032
MEAN_MOTION    = 16.01310636
ECCENTRICITY   = .0001184
INCLINATION    = 97.2828
RA_OF_ASC_NODE = 270.2146
ARG_OF_PERICENTER = 84.6985
MEAN_ANOMALY   = 309.1240

EPHEMERIS_TYPE = 0
CLASSIFICATION_TYPE = U
NORAD_CAT_ID   = 67533
ELEMENT_SET_NO = 999
REV_AT_EPOCH   = 208
BSTAR          = -.23013E-2
MEAN_MOTION_DOT = -.1250029E-1
MEAN_MOTION_DDOT = .50276E-3

CCSDS_OMM_VERS = 2.0
CREATION_DATE  = 
ORIGINATOR     = 

OBJECT_NAME    = STARLINK-36576
OBJECT_ID      = 2026-014C
CENTER_NAME    = EARTH
REF_FRAME      = TEME
TIME_SYSTEM    = UTC
MEAN_ELEMENT_THEORY = SGP/SGP4

EPOCH          = 2026-01-27T14:00:04.000032
MEAN_MOTION    = 16.01431442
ECCENTRICITY   = .0001228
INCLINATION    = 97.2829
RA_OF_ASC_NODE = 270.2150
ARG_OF_PERICENTER = 83.1268
MEAN_ANOMALY   = 312.0805

EPHEMERIS_TYPE = 0
CLASSIFICATION_TYPE = U
NORAD_CAT_ID   = 67534
ELEMENT_SET_NO = 999
REV_AT_EPOCH   = 208
BSTAR          = -.22827E-2
MEAN_MOTION_DOT = -.1248588E-1
MEAN_MOTION_DDOT = .50238E-3

CCSDS_OMM_VERS = 2.0
CREATION_DATE  = 
ORIGINATOR     = 

OBJECT_NAME    = STARLINK-36574
OBJECT_ID      = 2026-014D
CENTER_NAME    = EARTH
REF_FRAME      = TEME
TIME_SYSTEM    = UTC
MEAN_ELEMENT_THEORY = SGP/SGP4

EPOCH          = 2026-01-27T14:00:04.000032
MEAN_MOTION    = 16.01604487
ECCENTRICITY   = .0001169
INCLINATION    = 97.2829
RA_OF_ASC_NODE = 270.2156
ARG_OF_PERICENTER = 69.8731
MEAN_ANOMALY   = 327.1726

EPHEMERIS_TYPE = 0
CLASSIFICATION_TYPE = U
NORAD_CAT_ID   = 67535
ELEMENT_SET_NO = 999
REV_AT_EPOCH   = 208
BSTAR          = -.22396E-2
MEAN_MOTION_DOT = -.1237431E-1
MEAN_MOTION_DDOT = .49509E-3

CCSDS_OMM_VERS = 2.0
CREATION_DATE  = 
ORIGINATOR     = 

OBJECT_NAME    = STARLINK-36572
OBJECT_ID      = 2026-014E
CENTER_NAME    = EARTH
REF_FRAME      = TEME
TIME_SYSTEM    = UTC
MEAN_ELEMENT_THEORY = SGP/SGP4

EPOCH          = 2026-01-27T14:00:04.000032
MEAN_MOTION    = 16.01768680
ECCENTRICITY   = .0001162
INCLINATION    = 97.2828
RA_OF_ASC_NODE = 270.2165
ARG_OF_PERICENTER = 71.7563
MEAN_ANOMALY   = 327.0094

EPHEMERIS_TYPE = 0
CLASSIFICATION_TYPE = U
NORAD_CAT_ID   = 67536
ELEMENT_SET_NO = 999
REV_AT_EPOCH   = 208
BSTAR          = -.2217E-2
MEAN_MOTION_DOT = -.1236577E-1
MEAN_MOTION_DDOT = .49539E-3

CCSDS_OMM_VERS = 2.0
CREATION_DATE  = 
ORIGINATOR     = 

OBJECT_NAME    = STARLINK-36561
OBJECT_ID      = 2026-014F
CENTER_NAME    = EARTH
REF_FRAME      = TEME
TIME_SYSTEM    = UTC
MEAN_ELEMENT_THEORY = SGP/SGP4

EPOCH          = 2026-01-27T14:00:04.000032
MEAN_MOTION    = 16.01895094
ECCENTRICITY   = .0001094
INCLINATION    = 97.2823
RA_OF_ASC_NODE = 270.2171
ARG_OF_PERICENTER = 77.1944
MEAN_ANOMALY   = 323.0233

EPHEMERIS_TYPE = 0
CLASSIFICATION_TYPE = U
NORAD_CAT_ID   = 67537
ELEMENT_SET_NO = 999
REV_AT_EPOCH   = 208
BSTAR          = -.21888E-2
MEAN_MOTION_DOT = -.122988E-1
MEAN_MOTION_DDOT = .49115E-3

CCSDS_OMM_VERS = 2.0
CREATION_DATE  = 
ORIGINATOR     = 

OBJECT_NAME    = STARLINK-36397
OBJECT_ID      = 2026-014G
CENTER_NAME    = EARTH
REF_FRAME      = TEME
TIME_SYSTEM    = UTC
MEAN_ELEMENT_THEORY = SGP/SGP4

EPOCH          = 2026-01-27T14:00:04.000032
MEAN_MOTION    = 16.02004070
ECCENTRICITY   = .0001179
INCLINATION    = 97.2822
RA_OF_ASC_NODE = 270.2176
ARG_OF_PERICENTER = 83.9203
MEAN_ANOMALY   = 317.6165

EPHEMERIS_TYPE = 0
CLASSIFICATION_TYPE = U
NORAD_CAT_ID   = 67538
ELEMENT_SET_NO = 999
REV_AT_EPOCH   = 208
BSTAR          = -.21576E-2
MEAN_MOTION_DOT = -.1220176E-1
MEAN_MOTION_DDOT = .48461E-3

